{"type": "FeatureCollection", "features": [ {"type": "Feature", "properties": {"norad_id": 30960, "name": "FENGYUN 1C DEB", "group": "fengyun-1c-debris", "lat": 29.778193710219906, "lon": 110.40810826661608, "alt_km": 679.3213105574432, "timestamp": "2025-12-24T11:33:00.296637+00:00", "meta": {"OBJECT_NAME": "FENGYUN 1C DEB", "OBJECT_ID": "1999-025BBA", "EPOCH": "2025-12-24T01:35:23.866944", "MEAN_MOTION": 14.67096676, "ECCENTRICITY": 0.0195977, "INCLINATION": 99.0009, "RA_OF_ASC_NODE": 115.1562, "ARG_OF_PERICENTER": 127.0459, "MEAN_ANOMALY": 234.8846, "EPHEMERIS_TYPE": 0, "CLASSIFICATION_TYPE": "U", "NORAD_CAT_ID": 30960, "ELEMENT_SET_NO": 999, "REV_AT_EPOCH": 98864, "BSTAR": 0.0011626, "MEAN_MOTION_DOT": 8.66e-05, "MEAN_MOTION_DDOT": 0}, "tle": {"line1": "1 30960U 99025BBA 25358.06624846  .00008660  00000+0  11626-2 0  9999", "line2": "2 30960  99.0009 115.1562 0195977 127.0459 234.8846 14.67096676988646"}}, "geometry": {"type": "Point", "coordinates": [110.40810826661608, 29.778193710219906]}}, {"type": "Feature", "properties": {"norad_id": 30967, "name": "FENGYUN 1C DEB", "group": "fengyun-1c-debris", "lat": -25.331613242416804, "lon": 121.12169715428058, "alt_km": 640.6448386741122, "timestamp": "2025-12-24T11:33:00.296647+00:00", "meta": {"OBJECT_NAME": "FENGYUN 1C DEB", "OBJECT_ID": "1999-025BBH", "EPOCH": "2025-12-22T14:06:46.583424", "MEAN_MOTION": 14.57201105, "ECCENTRICITY": 0.0094883, "INCLINATION": 98.7655, "RA_OF_ASC_NODE": 303.3185, "ARG_OF_PERICENTER": 209.1974, "MEAN_ANOMALY": 150.39, "EPHEMERIS_TYPE": 0, "CLASSIFICATION_TYPE": "U", "NORAD_CAT_ID": 30967, "ELEMENT_SET_NO": 999, "REV_AT_EPOCH": 99157, "BSTAR": 0.00061481123, "MEAN_MOTION_DOT": 2.897e-05, "MEAN_MOTION_DDOT": 0}, "tle": {"line1": "1 30967U 99025BBH 25356.58803916  .00002897  00000+0  61481-3 0  9999", "line2": "2 30967  98.7655 303.3185 0094883 209.1974 150.3900 14.57201105991579"}}, "geometry": {"type": "Point", "coordinates": [121.12169715428058, -25.331613242416804]}}, {"type": "Feature", "properties": {"norad_id": 30971, "name": "FENGYUN 1C DEB", "group": "fengyun-1c-debris", "lat": -52.66875228210365, "lon": 56.15231414424088, "alt_km": 763.1831896031044, "timestamp": "2025-12-24T11:33:00.296658+00:00", "meta": {"OBJECT_NAME": "FENGYUN 1C DEB", "OBJECT_ID": "1999-025BBM", "EPOCH": "2025-12-22T21:26:36.171744", "MEAN_MOTION": 14.71785418, "ECCENTRICITY": 0.0164056, "INCLINATION": 99.208, "RA_OF_ASC_NODE": 42.0759, "ARG_OF_PERICENTER": 159.8739, "MEAN_ANOMALY": 17.7567, "EPHEMERIS_TYPE": 0, "CLASSIFICATION_TYPE": "U", "NORAD_CAT_ID": 30971, "ELEMENT_SET_NO": 999, "REV_AT_EPOCH": 99866, "BSTAR": 0.00060198, "MEAN_MOTION_DOT": 4.575e-05, "MEAN_MOTION_DDOT": 0}, "tle": {"line1": "1 30971U 99025BBM 25356.89347421  .00004575  00000+0  60198-3 0  9991", "line2": "2 30971  99.2080  42.0759 0164056 159.8739  17.7567 14.71785418998668"}}, "geometry": {"type": "Point", "coordinates": [56.15231414424088, -52.66875228210365]}}, {"type": "Feature", "properties": {"norad_id": 30979, "name": "FENGYUN 1C DEB", "group": "fengyun-1c-debris", "lat": -57.88116137332365, "lon": -90.71191371312958, "alt_km": 656.9262340400692, "timestamp": "2025-12-24T11:33:00.296669+00:00", "meta": {"OBJECT_NAME": "FENGYUN 1C DEB", "OBJECT_ID": "1999-025BBV", "EPOCH": "2025-12-23T16:28:29.319744", "MEAN_MOTION": 14.78953754, "ECCENTRICITY": 0.01902775, "INCLINATION": 97.8299, "RA_OF_ASC_NODE": 255.8516, "ARG_OF_PERICENTER": 205.3951, "MEAN_ANOMALY": 184.6049, "EPHEMERIS_TYPE": 0, "CLASSIFICATION_TYPE": "U", "NORAD_CAT_ID": 30979, "ELEMENT_SET_NO": 999, "REV_AT_EPOCH": 99307, "BSTAR": 0.00089357946, "MEAN_MOTION_DOT": 8.905e-05, "MEAN_MOTION_DDOT": 0}, "tle": {"line1": "1 30979U 99025BBV 25357.68645046  .00008905  00000+0  89358-3 0  9991", "line2": "2 30979  97.8299 255.8516 0190277 205.3951 184.6049 14.78953754993070"}}, "geometry": {"type": "Point", "coordinates": [-90.71191371312958, -57.88116137332365]}}, {"type": "Feature", "properties": {"norad_id": 30982, "name": "FENGYUN 1C DEB", "group": "fengyun-1c-debris", "lat": 58.06933026349576, "lon": -24.95716756340295, "alt_km": 817.7710777444281, "timestamp": "2025-12-24T11:33:00.296679+00:00", "meta": {"OBJECT_NAME": "FENGYUN 1C DEB", "OBJECT_ID": "1999-025BBY", "EPOCH": "2025-12-23T05:32:45.239424", "MEAN_MOTION": 14.50982997, "ECCENTRICITY": 0.01799715, "INCLINATION": 98.2177, "RA_OF_ASC_NODE": 347.2294, "ARG_OF_PERICENTER": 280.1349, "MEAN_ANOMALY": 91.1992, "EPHEMERIS_TYPE": 0, "CLASSIFICATION_TYPE": "U", "NORAD_CAT_ID": 30982, "ELEMENT_SET_NO": 999, "REV_AT_EPOCH": 71206, "BSTAR": 0.00028310566, "MEAN_MOTION_DOT": 1.325e-05, "MEAN_MOTION_DDOT": 0}, "tle": {"line1": "1 30982U 99025BBY 25357.23107916  .00001325  00000+0  28311-3 0  9996", "line2": "2 30982  98.2177 347.2294 0179971 280.1349  91.1992 14.50982997712061"}}, "geometry": {"type": "Point", "coordinates": [-24.95716756340295, 58.06933026349576]}}, {"type": "Feature", "properties": {"norad_id": 30984, "name": "FENGYUN 1C DEB", "group": "fengyun-1c-debris", "lat": -81.22121126149977, "lon": 104.80465871946413, "alt_km": 684.147945655588, "timestamp": "2025-12-24T11:33:00.296690+00:00", "meta": {"OBJECT_NAME": "FENGYUN 1C DEB", "OBJECT_ID": "1999-025BCA", "EPOCH": "2025-12-23T07:47:51.502560", "MEAN_MOTION": 14.50495225, "ECCENTRICITY": 0.01267231, "INCLINATION": 98.2619, "RA_OF_ASC_NODE": 33.4686, "ARG_OF_PERICENTER": 335.5072, "MEAN_ANOMALY": 24.0135, "EPHEMERIS_TYPE": 0, "CLASSIFICATION_TYPE": "U", "NORAD_CAT_ID": 30984, "ELEMENT_SET_NO": 999, "REV_AT_EPOCH": 95317, "BSTAR": 0.00077853659, "MEAN_MOTION_DOT": 3.329e-05, "MEAN_MOTION_DDOT": 0}, "tle": {"line1": "1 30984U 99025BCA 25357.32490165  .00003329  00000+0  77854-3 0  9991", "line2": "2 30984  98.2619  33.4686 0126723 335.5072  24.0135 14.50495225953174"}}, "geometry": {"type": "Point", "coordinates": [104.80465871946413, -81.22121126149977]}}, {"type": "Feature", "properties": {"norad_id": 30988, "name": "FENGYUN 1C DEB", "group": "fengyun-1c-debris", "lat": -41.190458008098624, "lon": 119.97225323405664, "alt_km": 473.24530668773514, "timestamp": "2025-12-24T11:33:00.296700+00:00", "meta": {"OBJECT_NAME": "FENGYUN 1C DEB", "OBJECT_ID": "1999-025BCE", "EPOCH": "2025-12-21T02:23:01.428576", "MEAN_MOTION": 15.27139911, "ECCENTRICITY": 0.01097396, "INCLINATION": 98.542, "RA_OF_ASC_NODE": 303.6611, "ARG_OF_PERICENTER": 311.1413, "MEAN_ANOMALY": 48.0391, "EPHEMERIS_TYPE": 0, "CLASSIFICATION_TYPE": "U", "NORAD_CAT_ID": 30988, "ELEMENT_SET_NO": 999, "REV_AT_EPOCH": 99691, "BSTAR": 0.0018593315, "MEAN_MOTION_DOT": 0.00059401, "MEAN_MOTION_DDOT": 0}, "tle": {"line1": "1 30988U 99025BCE 25355.09932209  .00059401  00000+0  18593-2 0  9993", "line2": "2 30988  98.5420 303.6611 0109739 311.1413  48.0391 15.27139911996919"}}, "geometry": {"type": "Point", "coordinates": [119.97225323405664, -41.190458008098624]}}, {"type": "Feature", "properties": {"norad_id": 30989, "name": "FENGYUN 1C DEB", "group": "fengyun-1c-debris", "lat": -80.31696846209714, "lon": 141.30717935883933, "alt_km": 910.9160692681626, "timestamp": "2025-12-24T11:33:00.296711+00:00", "meta": {"OBJECT_NAME": "FENGYUN 1C DEB", "OBJECT_ID": "1999-025BCF", "EPOCH": "2025-12-24T03:28:11.681760", "MEAN_MOTION": 14.13992864, "ECCENTRICITY": 0.008989, "INCLINATION": 99.0518, "RA_OF_ASC_NODE": 71.8564, "ARG_OF_PERICENTER": 67.6249, "MEAN_ANOMALY": 293.4418, "EPHEMERIS_TYPE": 0, "CLASSIFICATION_TYPE": "U", "NORAD_CAT_ID": 30989, "ELEMENT_SET_NO": 999, "REV_AT_EPOCH": 96149, "BSTAR": 0.001458, "MEAN_MOTION_DOT": 2.834e-05, "MEAN_MOTION_DDOT": 0}, "tle": {"line1": "1 30989U 99025BCF 25358.14457965  .00002834  00000+0  14580-2 0  9994", "line2": "2 30989  99.0518  71.8564 0089890  67.6249 293.4418 14.13992864961499"}}, "geometry": {"type": "Point", "coordinates": [141.30717935883933, -80.31696846209714]}}, {"type": "Feature", "properties": {"norad_id": 30993, "name": "FENGYUN 1C DEB", "group": "fengyun-1c-debris", "lat": 38.47829960266979, "lon": 84.10751463273263, "alt_km": 764.9990638317513, "timestamp": "2025-12-24T11:33:00.296721+00:00", "meta": {"OBJECT_NAME": "FENGYUN 1C DEB", "OBJECT_ID": "1999-025BCK", "EPOCH": "2025-12-24T00:28:21.660096", "MEAN_MOTION": 14.35528307, "ECCENTRICITY": 0.001624, "INCLINATION": 98.846, "RA_OF_ASC_NODE": 90.7446, "ARG_OF_PERICENTER": 337.9955, "MEAN_ANOMALY": 197.0212, "EPHEMERIS_TYPE": 0, "CLASSIFICATION_TYPE": "U", "NORAD_CAT_ID": 30993, "ELEMENT_SET_NO": 999, "REV_AT_EPOCH": 97081, "BSTAR": 0.0018093, "MEAN_MOTION_DOT": 5.172e-05, "MEAN_MOTION_DDOT": 0}, "tle": {"line1": "1 30993U 99025BCK 25358.01969514  .00005172  00000+0  18093-2 0  9994", "line2": "2 30993  98.8460  90.7446 0016240 337.9955 197.0212 14.35528307970810"}}, "geometry": {"type": "Point", "coordinates": [84.10751463273263, 38.47829960266979]}}, {"type": "Feature", "properties": {"norad_id": 30994, "name": "FENGYUN 1C DEB", "group": "fengyun-1c-debris", "lat": 23.61796923724433, "lon": -169.59012926192077, "alt_km": 839.8381142743392, "timestamp": "2025-12-24T11:33:00.296732+00:00", "meta": {"OBJECT_NAME": "FENGYUN 1C DEB", "OBJECT_ID": "1999-025BCL", "EPOCH": "2025-12-23T11:00:04.805280", "MEAN_MOTION": 14.11776865, "ECCENTRICITY": 0.0018356, "INCLINATION": 98.6996, "RA_OF_ASC_NODE": 5.5792, "ARG_OF_PERICENTER": 144.7551, "MEAN_ANOMALY": 215.4838, "EPHEMERIS_TYPE": 0, "CLASSIFICATION_TYPE": "U", "NORAD_CAT_ID": 30994, "ELEMENT_SET_NO": 999, "REV_AT_EPOCH": 96736, "BSTAR": 0.00016449, "MEAN_MOTION_DOT": 2.58e-06, "MEAN_MOTION_DDOT": 0}, "tle": {"line1": "1 30994U 99025BCL 25357.45838895  .00000258  00000+0  16449-3 0  9993", "line2": "2 30994  98.6996   5.5792 0018356 144.7551 215.4838 14.11776865967360"}}, "geometry": {"type": "Point", "coordinates": [-169.59012926192077, 23.61796923724433]}}]}